{
    "links": {
        "self": "http://www.neowsapp.com/rest/v1/neo/3557531?api_key=iIulBulltgU6a56xZRHN4H3l9WmuAYTsLGpBGhQ2"
    },
    "id": "3557531",
    "neo_reference_id": "3557531",
    "name": "(2011 CF50)",
    "designation": "2011 CF50",
    "nasa_jpl_url": "http://ssd.jpl.nasa.gov/sbdb.cgi?sstr=3557531",
    "absolute_magnitude_h": 26.9,
    "estimated_diameter": {
        "kilometers": {
            "estimated_diameter_min": 0.0110803882,
            "estimated_diameter_max": 0.0247765013
        },
        "meters": {
            "estimated_diameter_min": 11.0803882126,
            "estimated_diameter_max": 24.7765012606
        },
        "miles": {
            "estimated_diameter_min": 0.0068850319,
            "estimated_diameter_max": 0.0153953994
        },
        "feet": {
            "estimated_diameter_min": 36.3529808636,
            "estimated_diameter_max": 81.2877363957
        }
    },
    "is_potentially_hazardous_asteroid": false,
    "close_approach_data": [
        {
            "close_approach_date": "2011-02-19",
            "close_approach_date_full": "2011-Feb-19 04:45",
            "epoch_date_close_approach": 1298090700000,
            "relative_velocity": {
                "kilometers_per_second": "8.3289924254",
                "kilometers_per_hour": "29984.3727314061",
                "miles_per_hour": "18631.1231563562"
            },
            "miss_distance": {
                "astronomical": "0.0455778175",
                "lunar": "17.7297710075",
                "kilometers": "6818344.417248725",
                "miles": "4236722.761433405"
            },
            "orbiting_body": "Earth"
        }
    ],
    "orbital_data": {
        "orbit_id": "5",
        "orbit_determination_date": "2017-04-06 08:54:28",
        "first_observation_date": "2011-02-12",
        "last_observation_date": "2011-02-13",
        "data_arc_in_days": 1,
        "observations_used": 15,
        "orbit_uncertainty": "9",
        "minimum_orbit_intersection": ".0432922",
        "jupiter_tisserand_invariant": "3.697",
        "epoch_osculation": "2455605.5",
        "eccentricity": ".4825287021333355",
        "semi_major_axis": "1.977197359037194",
        "inclination": "9.480832525552119",
        "ascending_node_longitude": "326.4503135473403",
        "orbital_period": "1015.484875389811",
        "perihelion_distance": "1.023142883519518",
        "perihelion_argument": "196.308848266596",
        "aphelion_distance": "2.931251834554869",
        "perihelion_time": "2455622.066791016067",
        "mean_anomaly": "354.1268994641651",
        "mean_motion": ".3545104498595393",
        "equinox": "J2000",
        "orbit_class": {
            "orbit_class_type": "AMO",
            "orbit_class_description": "Near-Earth asteroid orbits similar to that of 1221 Amor",
            "orbit_class_range": "1.017 AU < q (perihelion) < 1.3 AU"
        }
    },
    "is_sentry_object": false
}